OBJECT_NAME,OBJECT_ID,EPOCH,MEAN_MOTION,ECCENTRICITY,INCLINATION,RA_OF_ASC_NODE,ARG_OF_PERICENTER,MEAN_ANOMALY,EPHEMERIS_TYPE,CLASSIFICATION_TYPE,NORAD_CAT_ID,ELEMENT_SET_NO,REV_AT_EPOCH,BSTAR,MEAN_MOTION_DOT,MEAN_MOTION_DDOT
HADES-ICM,2025-052BN,2026-05-11T06:39:39.254688,15.92461864,.0008532,97.3763,35.2336,169.1734,190.9726,0,U,63492,999,6496,.19229E-2,.648393E-2,.17188E-3
FORESAIL-1 PRIME,2025-276DS,2026-05-11T03:51:33.914880,15.18357545,.0001627,97.4207,205.1173,194.9877,165.1309,0,U,66778,999,2478,.16033092E-3,.3226E-4,0
